{
  "type": "FeatureCollection",
  "features": [
    {
      "type": "Feature",
      "properties": {
        "norad_id": 47074,
        "name": "COSMOS 2251 DEB",
        "group": "cosmos-2251-debris",
        "lat": 69.57932222434609,
        "lon": 66.88763927050788,
        "alt_km": 844.0270186072139,
        "timestamp": "2025-12-19T04:59:48.705553+00:00",
        "meta_object_name": "COSMOS 2251 DEB",
        "meta_object_id": "1993-036BYE",
        "meta_epoch": "2025-12-16T13:32:26.153376",
        "meta_mean_motion": 14.35650419,
        "meta_eccentricity": 0.01449048,
        "meta_inclination": 74.0928,
        "meta_ra_of_asc_node": 301.7157,
        "meta_arg_of_pericenter": 328.8455,
        "meta_mean_anomaly": 153.2821,
        "meta_ephemeris_type": 0,
        "meta_classification_type": "U",
        "meta_norad_cat_id": 47074,
        "meta_element_set_no": 999,
        "meta_rev_at_epoch": 2737,
        "meta_bstar": 0.0011411657,
        "meta_mean_motion_dot": 3.683e-05,
        "meta_mean_motion_ddot": 0,
        "tle_line1": "1 47074U 93036BYE 25350.56419159  .00003683  00000+0  11412-2 0  9998",
        "tle_line2": "2 47074  74.0928 301.7157 0144904 328.8455 153.2821 14.35650419 27374"
      },
      "geometry": {
        "type": "Point",
        "coordinates": [
          66.88763927050788,
          69.57932222434609
        ]
      }
    },
    {
      "type": "Feature",
      "properties": {
        "norad_id": 47116,
        "name": "COSMOS 2251 DEB",
        "group": "cosmos-2251-debris",
        "lat": -30.298507635891042,
        "lon": -142.04246821954305,
        "alt_km": 562.5906658822933,
        "timestamp": "2025-12-19T04:59:48.705565+00:00",
        "meta_object_name": "COSMOS 2251 DEB",
        "meta_object_id": "1993-036BYJ",
        "meta_epoch": "2025-12-17T22:44:25.492992",
        "meta_mean_motion": 14.98433598,
        "meta_eccentricity": 0.00213127,
        "meta_inclination": 74.0233,
        "meta_ra_of_asc_node": 230.1515,
        "meta_arg_of_pericenter": 323.4041,
        "meta_mean_anomaly": 47.2172,
        "meta_ephemeris_type": 0,
        "meta_classification_type": "U",
        "meta_norad_cat_id": 47116,
        "meta_element_set_no": 999,
        "meta_rev_at_epoch": 59589,
        "meta_bstar": 0.0014083931,
        "meta_mean_motion_dot": 0.000169,
        "meta_mean_motion_ddot": 0,
        "tle_line1": "1 47116U 93036BYJ 25351.94751728  .00016900  00000+0  14084-2 0  9993",
        "tle_line2": "2 47116  74.0233 230.1515 0021312 323.4041  47.2172 14.98433598595896"
      },
      "geometry": {
        "type": "Point",
        "coordinates": [
          -142.04246821954305,
          -30.298507635891042
        ]
      }
    },
    {
      "type": "Feature",
      "properties": {
        "norad_id": 53093,
        "name": "COSMOS 2251 DEB",
        "group": "cosmos-2251-debris",
        "lat": -71.7069353124774,
        "lon": -130.5144338944546,
        "alt_km": 758.2241727750361,
        "timestamp": "2025-12-19T04:59:48.705575+00:00",
        "meta_object_name": "COSMOS 2251 DEB",
        "meta_object_id": "1993-036BYP",
        "meta_epoch": "2025-12-18T22:42:37.276992",
        "meta_mean_motion": 14.4191261,
        "meta_eccentricity": 0.00195811,
        "meta_inclination": 74.0368,
        "meta_ra_of_asc_node": 289.9508,
        "meta_arg_of_pericenter": 6.0088,
        "meta_mean_anomaly": 354.1299,
        "meta_ephemeris_type": 0,
        "meta_classification_type": "U",
        "meta_norad_cat_id": 53093,
        "meta_element_set_no": 999,
        "meta_rev_at_epoch": 17815,
        "meta_bstar": 0.00062263644,
        "meta_mean_motion_dot": 2.018e-05,
        "meta_mean_motion_ddot": 0,
        "tle_line1": "1 53093U 93036BYP 25352.94626478  .00002018  00000+0  62264-3 0  9997",
        "tle_line2": "2 53093  74.0368 289.9508 0019581   6.0088 354.1299 14.41912610178151"
      },
      "geometry": {
        "type": "Point",
        "coordinates": [
          -130.5144338944546,
          -71.7069353124774
        ]
      }
    }
  ]
}